[{"OBJECT_NAME":"COSMOS 2251 DEB","OBJECT_ID":"1993-036AGU","EPOCH":"2026-03-29T04:39:57.494016","MEAN_MOTION":14.38421836,"ECCENTRICITY":0.0018022,"INCLINATION":74.0372,"RA_OF_ASC_NODE":63.1115,"ARG_OF_PERICENTER":138.4731,"MEAN_ANOMALY":221.7796,"EPHEMERIS_TYPE":0,"CLASSIFICATION_TYPE":"U","NORAD_CAT_ID":35031,"ELEMENT_SET_NO":999,"REV_AT_EPOCH":66814,"BSTAR":0.00020449,"MEAN_MOTION_DOT":5.99e-6,"MEAN_MOTION_DDOT":0},{"OBJECT_NAME":"COSMOS 2251 DEB","OBJECT_ID":"1993-036AGV","EPOCH":"2026-03-28T10:57:17.106336","MEAN_MOTION":14.59659675,"ECCENTRICITY":0.00671353,"INCLINATION":73.8517,"RA_OF_ASC_NODE":163.5108,"ARG_OF_PERICENTER":349.5408,"MEAN_ANOMALY":25.9973,"EPHEMERIS_TYPE":0,"CLASSIFICATION_TYPE":"U","NORAD_CAT_ID":35032,"ELEMENT_SET_NO":999,"REV_AT_EPOCH":89216,"BSTAR":0.00067639036,"MEAN_MOTION_DOT":3.293e-5,"MEAN_MOTION_DDOT":0},{"OBJECT_NAME":"COSMOS 2251 DEB","OBJECT_ID":"1993-036AGW","EPOCH":"2026-03-27T08:57:06.958080","MEAN_MOTION":14.51578193,"ECCENTRICITY":0.0012662,"INCLINATION":74.0289,"RA_OF_ASC_NODE":339.5807,"ARG_OF_PERICENTER":64.3398,"MEAN_ANOMALY":295.907,"EPHEMERIS_TYPE":0,"CLASSIFICATION_TYPE":"U","NORAD_CAT_ID":35033,"ELEMENT_SET_NO":999,"REV_AT_EPOCH":67445,"BSTAR":0.00050749,"MEAN_MOTION_DOT":2.007e-5,"MEAN_MOTION_DDOT":0},{"OBJECT_NAME":"COSMOS 2251 DEB","OBJECT_ID":"1993-036AHB","EPOCH":"2026-03-28T19:10:22.162368","MEAN_MOTION":14.2607004,"ECCENTRICITY":0.01118384,"INCLINATION":74.1058,"RA_OF_ASC_NODE":211.9062,"ARG_OF_PERICENTER":169.9614,"MEAN_ANOMALY":342.3993,"EPHEMERIS_TYPE":0,"CLASSIFICATION_TYPE":"U","NORAD_CAT_ID":35038,"ELEMENT_SET_NO":999,"REV_AT_EPOCH":87080,"BSTAR":0.0016482613,"MEAN_MOTION_DOT":4.184e-5,"MEAN_MOTION_DDOT":0},{"OBJECT_NAME":"COSMOS 2251 DEB","OBJECT_ID":"1993-036AHG","EPOCH":"2026-03-28T06:56:06.549216","MEAN_MOTION":14.82985196,"ECCENTRICITY":0.0086786,"INCLINATION":73.9486,"RA_OF_ASC_NODE":196.5509,"ARG_OF_PERICENTER":15.7759,"MEAN_ANOMALY":344.6089,"EPHEMERIS_TYPE":0,"CLASSIFICATION_TYPE":"U","NORAD_CAT_ID":35043,"ELEMENT_SET_NO":999,"REV_AT_EPOCH":68980,"BSTAR":0.0029832,"MEAN_MOTION_DOT":0.00025957,"MEAN_MOTION_DDOT":0},{"OBJECT_NAME":"COSMOS 2251 DEB","OBJECT_ID":"1993-036AHJ","EPOCH":"2026-03-28T15:55:49.778112","MEAN_MOTION":14.00637909,"ECCENTRICITY":0.0180581,"INCLINATION":73.7176,"RA_OF_ASC_NODE":225.5881,"ARG_OF_PERICENTER":91.8378,"MEAN_ANOMALY":270.3446,"EPHEMERIS_TYPE":0,"CLASSIFICATION_TYPE":"U","NORAD_CAT_ID":35045,"ELEMENT_SET_NO":999,"REV_AT_EPOCH":86126,"BSTAR":0.00059208,"MEAN_MOTION_DOT":9.9e-6,"MEAN_MOTION_DDOT":0},{"OBJECT_NAME":"COSMOS 2251 DEB","OBJECT_ID":"1993-036AHP","EPOCH":"2026-03-26T06:43:28.650144","MEAN_MOTION":14.4185462,"ECCENTRICITY":0.0016908,"INCLINATION":74.0372,"RA_OF_ASC_NODE":52.4912,"ARG_OF_PERICENTER":120.8059,"MEAN_ANOMALY":239.4763,"EPHEMERIS_TYPE":0,"CLASSIFICATION_TYPE":"U","NORAD_CAT_ID":35060,"ELEMENT_SET_NO":999,"REV_AT_EPOCH":88734,"BSTAR":0.00031017,"MEAN_MOTION_DOT":9.9e-6,"MEAN_MOTION_DDOT":0},{"OBJECT_NAME":"COSMOS 2251 DEB","OBJECT_ID":"1993-036AHQ","EPOCH":"2026-03-28T10:44:01.216320","MEAN_MOTION":14.68782856,"ECCENTRICITY":0.00407712,"INCLINATION":74.0426,"RA_OF_ASC_NODE":101.426,"ARG_OF_PERICENTER":190.4454,"MEAN_ANOMALY":169.5875,"EPHEMERIS_TYPE":0,"CLASSIFICATION_TYPE":"U","NORAD_CAT_ID":35061,"ELEMENT_SET_NO":999,"REV_AT_EPOCH":90126,"BSTAR":0.0005499195,"MEAN_MOTION_DOT":3.218e-5,"MEAN_MOTION_DDOT":0},{"OBJECT_NAME":"COSMOS 2251 DEB","OBJECT_ID":"1993-036AHR","EPOCH":"2026-03-27T21:31:13.532160","MEAN_MOTION":14.24066234,"ECCENTRICITY":0.0126016,"INCLINATION":74.0774,"RA_OF_ASC_NODE":264.5148,"ARG_OF_PERICENTER":237.2578,"MEAN_ANOMALY":121.6374,"EPHEMERIS_TYPE":0,"CLASSIFICATION_TYPE":"U","NORAD_CAT_ID":35062,"ELEMENT_SET_NO":999,"REV_AT_EPOCH":86995,"BSTAR":0.0017542,"MEAN_MOTION_DOT":4.355e-5,"MEAN_MOTION_DDOT":0},{"OBJECT_NAME":"COSMOS 2251 DEB","OBJECT_ID":"1993-036AHU","EPOCH":"2026-03-27T12:06:34.341696","MEAN_MOTION":14.46107911,"ECCENTRICITY":0.0018513,"INCLINATION":74.0221,"RA_OF_ASC_NODE":358.7026,"ARG_OF_PERICENTER":103.7345,"MEAN_ANOMALY":256.5875,"EPHEMERIS_TYPE":0,"CLASSIFICATION_TYPE":"U","NORAD_CAT_ID":35065,"ELEMENT_SET_NO":999,"REV_AT_EPOCH":69865,"BSTAR":0.00036744,"MEAN_MOTION_DOT":1.288e-5,"MEAN_MOTION_DDOT":0},{"OBJECT_NAME":"COSMOS 2251 DEB","OBJECT_ID":"1993-036AJA","EPOCH":"2026-03-28T21:15:53.068896","MEAN_MOTION":15.06110653,"ECCENTRICITY":0.00672535,"INCLINATION":73.932,"RA_OF_ASC_NODE":314.7011,"ARG_OF_PERICENTER":185.8592,"MEAN_ANOMALY":174.182,"EPHEMERIS_TYPE":0,"CLASSIFICATION_TYPE":"U","NORAD_CAT_ID":35071,"ELEMENT_SET_NO":999,"REV_AT_EPOCH":69133,"BSTAR":0.00073582027,"MEAN_MOTION_DOT":0.00011297,"MEAN_MOTION_DDOT":0},{"OBJECT_NAME":"COSMOS 2251 DEB","OBJECT_ID":"1993-036AJC","EPOCH":"2026-03-28T18:44:30.363936","MEAN_MOTION":15.11855389,"ECCENTRICITY":0.00150405,"INCLINATION":73.9912,"RA_OF_ASC_NODE":112.5294,"ARG_OF_PERICENTER":239.2899,"MEAN_ANOMALY":120.6813,"EPHEMERIS_TYPE":0,"CLASSIFICATION_TYPE":"U","NORAD_CAT_ID":35073,"ELEMENT_SET_NO":999,"REV_AT_EPOCH":69075,"BSTAR":0.0033163015,"MEAN_MOTION_DOT":0.00057294,"MEAN_MOTION_DDOT":0},{"OBJECT_NAME":"COSMOS 2251 DEB","OBJECT_ID":"1993-036AJN","EPOCH":"2026-03-28T16:54:10.189440","MEAN_MOTION":14.38442648,"ECCENTRICITY":0.0015469,"INCLINATION":74.0476,"RA_OF_ASC_NODE":69.2971,"ARG_OF_PERICENTER":127.7618,"MEAN_ANOMALY":53.9489,"EPHEMERIS_TYPE":0,"CLASSIFICATION_TYPE":"U","NORAD_CAT_ID":35284,"ELEMENT_SET_NO":999,"REV_AT_EPOCH":67049,"BSTAR":0.00016566451,"MEAN_MOTION_DOT":4.8e-6,"MEAN_MOTION_DDOT":0},{"OBJECT_NAME":"COSMOS 2251 DEB","OBJECT_ID":"1993-036AJR","EPOCH":"2026-03-28T17:52:42.144672","MEAN_MOTION":14.36471222,"ECCENTRICITY":0.0017587,"INCLINATION":74.028,"RA_OF_ASC_NODE":81.3309,"ARG_OF_PERICENTER":160.9767,"MEAN_ANOMALY":20.8944,"EPHEMERIS_TYPE":0,"CLASSIFICATION_TYPE":"U","NORAD_CAT_ID":35287,"ELEMENT_SET_NO":999,"REV_AT_EPOCH":88414,"BSTAR":0.00012548,"MEAN_MOTION_DOT":3.42e-6,"MEAN_MOTION_DDOT":0},{"OBJECT_NAME":"COSMOS 2251 DEB","OBJECT_ID":"1993-036AJS","EPOCH":"2026-03-28T12:14:25.605312","MEAN_MOTION":14.66922923,"ECCENTRICITY":0.0037132,"INCLINATION":73.95,"RA_OF_ASC_NODE":170.2611,"ARG_OF_PERICENTER":12.5866,"MEAN_ANOMALY":347.6221,"EPHEMERIS_TYPE":0,"CLASSIFICATION_TYPE":"U","NORAD_CAT_ID":35288,"ELEMENT_SET_NO":999,"REV_AT_EPOCH":89428,"BSTAR":0.00094606,"MEAN_MOTION_DOT":5.319e-5,"MEAN_MOTION_DDOT":0},{"OBJECT_NAME":"COSMOS 2251 DEB","OBJECT_ID":"1993-036AJU","EPOCH":"2026-03-29T01:30:14.883264","MEAN_MOTION":14.84209921,"ECCENTRICITY":0.0006275,"INCLINATION":74.003,"RA_OF_ASC_NODE":208.8268,"ARG_OF_PERICENTER":301.161,"MEAN_ANOMALY":58.8953,"EPHEMERIS_TYPE":0,"CLASSIFICATION_TYPE":"U","NORAD_CAT_ID":35290,"ELEMENT_SET_NO":999,"REV_AT_EPOCH":89533,"BSTAR":0.0022698,"MEAN_MOTION_DOT":0.00019021,"MEAN_MOTION_DDOT":0}]
