COSMOS 2251 DEB         
1 35031U 93036AGU 26088.19441544  .00000599  00000+0  20449-3 0  9993
2 35031  74.0372  63.1115 0018022 138.4731 221.7796 14.38421836668143
COSMOS 2251 DEB         
1 35032U 93036AGV 26087.45644799  .00003293  00000+0  67639-3 0  9995
2 35032  73.8517 163.5108 0067135 349.5408  25.9973 14.59659675892163
COSMOS 2251 DEB         
1 35033U 93036AGW 26086.37299720  .00002007  00000+0  50749-3 0  9992
2 35033  74.0289 339.5807 0012662  64.3398 295.9070 14.51578193674453
COSMOS 2251 DEB         
1 35038U 93036AHB 26087.79886762  .00004184  00000+0  16483-2 0  9996
2 35038  74.1058 211.9062 0111838 169.9614 342.3993 14.26070040870805
COSMOS 2251 DEB         
1 35043U 93036AHG 26087.28896469  .00025957  00000+0  29832-2 0  9994
2 35043  73.9486 196.5509 0086786  15.7759 344.6089 14.82985196689806
COSMOS 2251 DEB         
1 35045U 93036AHJ 26087.66377058  .00000990  00000+0  59208-3 0  9997
2 35045  73.7176 225.5881 0180581  91.8378 270.3446 14.00637909861268
COSMOS 2251 DEB         
1 35060U 93036AHP 26085.28019271  .00000990  00000+0  31017-3 0  9998
2 35060  74.0372  52.4912 0016908 120.8059 239.4763 14.41854620887340
COSMOS 2251 DEB         
1 35061U 93036AHQ 26087.44723630  .00003218  00000+0  54992-3 0  9993
2 35061  74.0426 101.4260 0040771 190.4454 169.5875 14.68782856901264
COSMOS 2251 DEB         
1 35062U 93036AHR 26086.89668440  .00004355  00000+0  17542-2 0  9991
2 35062  74.0774 264.5148 0126016 237.2578 121.6374 14.24066234869950
COSMOS 2251 DEB         
1 35065U 93036AHU 26086.50456414  .00001288  00000+0  36744-3 0  9996
2 35065  74.0221 358.7026 0018513 103.7345 256.5875 14.46107911698655
COSMOS 2251 DEB         
1 35071U 93036AJA 26087.88603089  .00011297  00000+0  73582-3 0  9999
2 35071  73.9320 314.7011 0067253 185.8592 174.1820 15.06110653691333
COSMOS 2251 DEB         
1 35073U 93036AJC 26087.78090699  .00057294  00000+0  33163-2 0  9994
2 35073  73.9912 112.5294 0015040 239.2899 120.6813 15.11855389690751
COSMOS 2251 DEB         
1 35284U 93036AJN 26087.70428460  .00000480  00000+0  16566-3 0  9995
2 35284  74.0476  69.2971 0015469 127.7618  53.9489 14.38442648670491
COSMOS 2251 DEB         
1 35287U 93036AJR 26087.74493223  .00000342  00000+0  12548-3 0  9994
2 35287  74.0280  81.3309 0017587 160.9767  20.8944 14.36471222884140
COSMOS 2251 DEB         
1 35288U 93036AJS 26087.51001858  .00005319  00000+0  94606-3 0  9993
2 35288  73.9500 170.2611 0037132  12.5866 347.6221 14.66922923894284
COSMOS 2251 DEB         
1 35290U 93036AJU 26088.06267226  .00019021  00000+0  22698-2 0  9996
2 35290  74.0030 208.8268 0006275 301.1610  58.8953 14.84209921895337
